{"fetched_at":"2026-07-10T07:58:41.598Z","source":"https://celestrak.org/NORAD/elements/gp.php?GROUP=oneweb&FORMAT=JSON","constellation":"oneweb","records":[{"OBJECT_NAME":"ONEWEB-0387","OBJECT_ID":"2021-090AL","EPOCH":"2026-07-08T17:32:47.039136","CLASSIFICATION_TYPE":"U","MEAN_MOTION":13.2077273,"ECCENTRICITY":0.00020775,"INCLINATION":87.9174,"RA_OF_ASC_NODE":270.1594,"ARG_OF_PERICENTER":91.4331,"MEAN_ANOMALY":268.704,"EPHEMERIS_TYPE":0,"NORAD_CAT_ID":49313,"ELEMENT_SET_NO":999,"REV_AT_EPOCH":23266,"BSTAR":-0.00031639176,"MEAN_MOTION_DOT":-0.00000116,"MEAN_MOTION_DDOT":0},{"OBJECT_NAME":"ONEWEB-0388","OBJECT_ID":"2021-090AM","EPOCH":"2026-07-08T20:44:09.099744","CLASSIFICATION_TYPE":"U","MEAN_MOTION":13.19726759,"ECCENTRICITY":0.00018254,"INCLINATION":87.9182,"RA_OF_ASC_NODE":300.6525,"ARG_OF_PERICENTER":98.7963,"MEAN_ANOMALY":261.3377,"EPHEMERIS_TYPE":0,"NORAD_CAT_ID":49314,"ELEMENT_SET_NO":999,"REV_AT_EPOCH":22927,"BSTAR":0.00014024626,"MEAN_MOTION_DOT":6.9e-7,"MEAN_MOTION_DDOT":0},{"OBJECT_NAME":"ONEWEB-0389","OBJECT_ID":"2021-132A","EPOCH":"2026-07-09T18:02:31.497216","CLASSIFICATION_TYPE":"U","MEAN_MOTION":13.17650403,"ECCENTRICITY":0.0001805,"INCLINATION":87.9135,"RA_OF_ASC_NODE":1.3784,"ARG_OF_PERICENTER":80.611,"MEAN_ANOMALY":279.5225,"EPHEMERIS_TYPE":0,"NORAD_CAT_ID":50469,"ELEMENT_SET_NO":999,"REV_AT_EPOCH":22105,"BSTAR":0.00025316,"MEAN_MOTION_DOT":0.00000111,"MEAN_MOTION_DDOT":0},{"OBJECT_NAME":"ONEWEB-0390","OBJECT_ID":"2021-132B","EPOCH":"2026-07-09T18:04:57.306720","CLASSIFICATION_TYPE":"U","MEAN_MOTION":13.17650445,"ECCENTRICITY":0.0002097,"INCLINATION":87.9139,"RA_OF_ASC_NODE":1.3789,"ARG_OF_PERICENTER":90.9019,"MEAN_ANOMALY":269.2352,"EPHEMERIS_TYPE":0,"NORAD_CAT_ID":50470,"ELEMENT_SET_NO":999,"REV_AT_EPOCH":22105,"BSTAR":0.00024483,"MEAN_MOTION_DOT":0.00000108,"MEAN_MOTION_DDOT":0},{"OBJECT_NAME":"ONEWEB-0391","OBJECT_ID":"2021-132C","EPOCH":"2026-07-09T18:07:23.116224","CLASSIFICATION_TYPE":"U","MEAN_MOTION":13.17650615,"ECCENTRICITY":0.0002301,"INCLINATION":87.9146,"RA_OF_ASC_NODE":1.3888,"ARG_OF_PERICENTER":71.8974,"MEAN_ANOMALY":288.2408,"EPHEMERIS_TYPE":0,"NORAD_CAT_ID":50471,"ELEMENT_SET_NO":999,"REV_AT_EPOCH":22105,"BSTAR":0.00013616,"MEAN_MOTION_DOT":6.6e-7,"MEAN_MOTION_DDOT":0},{"OBJECT_NAME":"ONEWEB-0392","OBJECT_ID":"2021-132D","EPOCH":"2026-07-09T17:01:46.987968","CLASSIFICATION_TYPE":"U","MEAN_MOTION":13.17650936,"ECCENTRICITY":0.0001878,"INCLINATION":87.9146,"RA_OF_ASC_NODE":1.3679,"ARG_OF_PERICENTER":79.0667,"MEAN_ANOMALY":281.0675,"EPHEMERIS_TYPE":0,"NORAD_CAT_ID":50472,"ELEMENT_SET_NO":999,"REV_AT_EPOCH":22108,"BSTAR":0.00024611,"MEAN_MOTION_DOT":0.00000108,"MEAN_MOTION_DDOT":0},{"OBJECT_NAME":"ONEWEB-0393","OBJECT_ID":"2021-132E","EPOCH":"2026-07-09T18:15:53.487072","CLASSIFICATION_TYPE":"U","MEAN_MOTION":13.17647897,"ECCENTRICITY":0.0001859,"INCLINATION":87.9135,"RA_OF_ASC_NODE":1.3729,"ARG_OF_PERICENTER":86.1327,"MEAN_ANOMALY":274.0017,"EPHEMERIS_TYPE":0,"NORAD_CAT_ID":50473,"ELEMENT_SET_NO":999,"REV_AT_EPOCH":22108,"BSTAR":0.00027884,"MEAN_MOTION_DOT":0.00000121,"MEAN_MOTION_DDOT":0},{"OBJECT_NAME":"ONEWEB-0394","OBJECT_ID":"2021-132F","EPOCH":"2026-07-09T15:12:07.775712","CLASSIFICATION_TYPE":"U","MEAN_MOTION":13.18684858,"ECCENTRICITY":0.0001688,"INCLINATION":87.9188,"RA_OF_ASC_NODE":330.9787,"ARG_OF_PERICENTER":94.1168,"MEAN_ANOMALY":266.0157,"EPHEMERIS_TYPE":0,"NORAD_CAT_ID":50474,"ELEMENT_SET_NO":999,"REV_AT_EPOCH":22455,"BSTAR":0.000049894,"MEAN_MOTION_DOT":3.3e-7,"MEAN_MOTION_DDOT":0},{"OBJECT_NAME":"ONEWEB-0395","OBJECT_ID":"2021-132G","EPOCH":"2026-07-09T18:01:16.917600","CLASSIFICATION_TYPE":"U","MEAN_MOTION":13.11415119,"ECCENTRICITY":0.0002015,"INCLINATION":87.8874,"RA_OF_ASC_NODE":16.5736,"ARG_OF_PERICENTER":84.9818,"MEAN_ANOMALY":275.1539,"EPHEMERIS_TYPE":0,"NORAD_CAT_ID":50475,"ELEMENT_SET_NO":999,"REV_AT_EPOCH":21867,"BSTAR":0.00062549,"MEAN_MOTION_DOT":0.00000234,"MEAN_MOTION_DDOT":0},{"OBJECT_NAME":"ONEWEB-0396","OBJECT_ID":"2021-132H","EPOCH":"2026-07-09T15:02:26.329632","CLASSIFICATION_TYPE":"U","MEAN_MOTION":13.18686308,"ECCENTRICITY":0.0001756,"INCLINATION":87.9195,"RA_OF_ASC_NODE":330.9924,"ARG_OF_PERICENTER":94.3542,"MEAN_ANOMALY":265.7791,"EPHEMERIS_TYPE":0,"NORAD_CAT_ID":50476,"ELEMENT_SET_NO":999,"REV_AT_EPOCH":22459,"BSTAR":-0.000040584,"MEAN_MOTION_DOT":-3e-8,"MEAN_MOTION_DDOT":0},{"OBJECT_NAME":"ONEWEB-0397","OBJECT_ID":"2021-132J","EPOCH":"2026-07-09T15:24:17.190432","CLASSIFICATION_TYPE":"U","MEAN_MOTION":13.18687139,"ECCENTRICITY":0.0001579,"INCLINATION":87.9199,"RA_OF_ASC_NODE":330.9892,"ARG_OF_PERICENTER":95.4343,"MEAN_ANOMALY":264.697,"EPHEMERIS_TYPE":0,"NORAD_CAT_ID":50477,"ELEMENT_SET_NO":999,"REV_AT_EPOCH":22457,"BSTAR":0.000011023,"MEAN_MOTION_DOT":1.7e-7,"MEAN_MOTION_DDOT":0},{"OBJECT_NAME":"ONEWEB-0398","OBJECT_ID":"2021-132K","EPOCH":"2026-07-08T22:56:14.158752","CLASSIFICATION_TYPE":"U","MEAN_MOTION":13.11389929,"ECCENTRICITY":0.00024543,"INCLINATION":87.8884,"RA_OF_ASC_NODE":16.7242,"ARG_OF_PERICENTER":90.1716,"MEAN_ANOMALY":269.9693,"EPHEMERIS_TYPE":0,"NORAD_CAT_ID":50478,"ELEMENT_SET_NO":999,"REV_AT_EPOCH":21846,"BSTAR":0.017141629,"MEAN_MOTION_DOT":0.0000609,"MEAN_MOTION_DDOT":0},{"OBJECT_NAME":"ONEWEB-0399","OBJECT_ID":"2021-132L","EPOCH":"2026-07-08T22:36:40.955616","CLASSIFICATION_TYPE":"U","MEAN_MOTION":13.11417914,"ECCENTRICITY":0.00016843,"INCLINATION":87.8889,"RA_OF_ASC_NODE":16.7379,"ARG_OF_PERICENTER":74.2709,"MEAN_ANOMALY":285.8605,"EPHEMERIS_TYPE":0,"NORAD_CAT_ID":50479,"ELEMENT_SET_NO":999,"REV_AT_EPOCH":21845,"BSTAR":-0.00099544842,"MEAN_MOTION_DOT":-0.0000034,"MEAN_MOTION_DDOT":0},{"OBJECT_NAME":"ONEWEB-0400","OBJECT_ID":"2021-132M","EPOCH":"2026-07-09T14:52:42.149856","CLASSIFICATION_TYPE":"U","MEAN_MOTION":13.18684526,"ECCENTRICITY":0.0002018,"INCLINATION":87.9192,"RA_OF_ASC_NODE":330.9835,"ARG_OF_PERICENTER":98.1142,"MEAN_ANOMALY":262.0219,"EPHEMERIS_TYPE":0,"NORAD_CAT_ID":50480,"ELEMENT_SET_NO":999,"REV_AT_EPOCH":22456,"BSTAR":0.00017583,"MEAN_MOTION_DOT":8.2e-7,"MEAN_MOTION_DDOT":0},{"OBJECT_NAME":"ONEWEB-0401","OBJECT_ID":"2021-132N","EPOCH":"2026-07-08T21:45:39.813120","CLASSIFICATION_TYPE":"U","MEAN_MOTION":13.18685519,"ECCENTRICITY":0.0001683,"INCLINATION":87.9185,"RA_OF_ASC_NODE":331.1236,"ARG_OF_PERICENTER":105.2515,"MEAN_ANOMALY":254.8804,"EPHEMERIS_TYPE":0,"NORAD_CAT_ID":50481,"ELEMENT_SET_NO":999,"REV_AT_EPOCH":22447,"BSTAR":0.000035769651,"MEAN_MOTION_DOT":2.7e-7,"MEAN_MOTION_DDOT":0},{"OBJECT_NAME":"ONEWEB-0402","OBJECT_ID":"2021-132P","EPOCH":"2026-07-09T15:04:51.485088","CLASSIFICATION_TYPE":"U","MEAN_MOTION":13.18687268,"ECCENTRICITY":0.0001446,"INCLINATION":87.9189,"RA_OF_ASC_NODE":330.9681,"ARG_OF_PERICENTER":107.0856,"MEAN_ANOMALY":253.0435,"EPHEMERIS_TYPE":0,"NORAD_CAT_ID":50482,"ELEMENT_SET_NO":999,"REV_AT_EPOCH":22459,"BSTAR":-0.000021381,"MEAN_MOTION_DOT":4e-8,"MEAN_MOTION_DDOT":0}]}
